ONEWEB-0461             
1 51649U 22012AD  25254.16366319  .00000062  00000+0  12723-3 0  9990
2 51649  87.9046  61.3450 0001780  96.2368 263.8966 13.17651866177144
ONEWEB-0463             
1 51650U 22012AE  25254.22102627 -.00000008  00000+0 -52559-4 0  9993
2 51650  87.9030  61.3935 0001745  89.8878 270.2454 13.17650408176933
ONEWEB-0464             
1 51651U 22012AF  25253.94625741  .00000035  00000+0  62556-4 0  9995
2 51651  87.8738  91.9769 0001401  81.7037 278.4249 13.10368666172752
ONEWEB-0468             
1 51652U 22012AG  25254.25833420  .00000943  00000+0  26639-2 0  9994
2 51652  87.8739  91.9068 0001594  82.6651 277.4658 13.10362891172770
ONEWEB-0473             
1 51653U 22012AH  25254.24338923  .00000489  00000+0  13651-2 0  9997
2 51653  87.8742  91.9128 0001684  81.7024 278.4294 13.10369937172771
ONEWEB-0474             
1 51654U 22012AJ  25254.00602773  .00000708  00000+0  19910-2 0  9997
2 51654  87.8744  91.9213 0001594  76.5819 283.5486 13.10371365172737
ONEWEB-0475             
1 51655U 22012AK  25254.23285604  .00000032  00000+0  48003-4 0  9990
2 51655  87.9037  61.3740 0001716  64.6086 295.5223 13.17650051176959
ONEWEB-0490             
1 54113U 22138A   25254.28040748 -.00000005  00000+0 -45200-4 0  9992
2 54113  87.9287   0.4084 0001584  98.9182 261.2130 13.19726350140049
